ONEWEB-0136             
1 47282U 20100AA  25239.52598871  .00000220  00000+0  57754-3 0  9996
2 47282  87.8877  49.0000 0001265  88.2745 271.8529 13.12442889226142
ONEWEB-0137             
1 47283U 20100AB  25239.48382111 -.00000056  00000+0 -19191-3 0  9992
2 47283  87.8875  49.0143 0001781  97.9433 262.1898 13.12441638226045
ONEWEB-0138             
1 47284U 20100AC  25239.46273707  .00000450  00000+0  12146-2 0  9999
2 47284  87.8875  49.0285 0001598  91.4123 268.7189 13.12441670226124
ONEWEB-0139             
1 47285U 20100AD  25239.50181069 -.00000438  00000+0 -12539-2 0  9998
2 47285  87.8866  49.0129 0001718  91.8693 268.2633 13.12442699226202
ONEWEB-0140             
1 47286U 20100AE  25239.53248598  .00000487  00000+0  13174-2 0  9991
2 47286  87.8869  48.9904 0001611  90.3471 269.7842 13.12443085226179
ONEWEB-0141             
1 47287U 20100AF  25239.50151280 -.00000377  00000+0 -10821-2 0  9996
2 47287  87.8863  49.0128 0001882 101.0310 259.1030 13.12442700226159
ONEWEB-0142             
1 47288U 20100AG  25239.49042762 -.00000221  00000+0 -65094-3 0  9990
2 47288  87.8878  49.0288 0001695 105.6544 254.4771 13.12443726226142
ONEWEB-0143             
1 47289U 20100AH  25239.50003095 -.00000383  00000+0 -11014-2 0  9990
2 47289  87.8878  49.0240 0001752  91.9197 268.2133 13.12441570226124
